<?xml version="1.0" encoding="UTF-8"?>
<ndm xmlns:xsi="http://www.w3.org/2001/XMLSchema-instance" xsi:noNamespaceSchemaLocation="https://sanaregistry.org/r/ndmxml_unqualified/ndmxml-2.0.0-master-2.0.xsd">
<omm id="CCSDS_OMM_VERS" version="2.0">
<header><CREATION_DATE/><ORIGINATOR/></header><body><segment><metadata><OBJECT_NAME>IRIDIUM 126</OBJECT_NAME><OBJECT_ID>2017-039G</OBJECT_ID><CENTER_NAME>EARTH</CENTER_NAME><REF_FRAME>TEME</REF_FRAME><TIME_SYSTEM>UTC</TIME_SYSTEM><MEAN_ELEMENT_THEORY>SGP4</MEAN_ELEMENT_THEORY></metadata><data><meanElements><EPOCH>2024-12-14T17:19:02.949888</EPOCH><MEAN_MOTION>14.34218507</MEAN_MOTION><ECCENTRICITY>.000208</ECCENTRICITY><INCLINATION>86.3989</INCLINATION><RA_OF_ASC_NODE>223.2203</RA_OF_ASC_NODE><ARG_OF_PERICENTER>77.6233</ARG_OF_PERICENTER><MEAN_ANOMALY>282.5195</MEAN_ANOMALY></meanElements><tleParameters><EPHEMERIS_TYPE>0</EPHEMERIS_TYPE><CLASSIFICATION_TYPE>U</CLASSIFICATION_TYPE><NORAD_CAT_ID>42809</NORAD_CAT_ID><ELEMENT_SET_NO>999</ELEMENT_SET_NO><REV_AT_EPOCH>39119</REV_AT_EPOCH><BSTAR>.11898E-3</BSTAR><MEAN_MOTION_DOT>.353E-5</MEAN_MOTION_DOT><MEAN_MOTION_DDOT>0</MEAN_MOTION_DDOT></tleParameters></data></segment></body></omm>
<omm id="CCSDS_OMM_VERS" version="2.0">
<header><CREATION_DATE/><ORIGINATOR/></header><body><segment><metadata><OBJECT_NAME>IRIDIUM 124</OBJECT_NAME><OBJECT_ID>2017-039H</OBJECT_ID><CENTER_NAME>EARTH</CENTER_NAME><REF_FRAME>TEME</REF_FRAME><TIME_SYSTEM>UTC</TIME_SYSTEM><MEAN_ELEMENT_THEORY>SGP4</MEAN_ELEMENT_THEORY></metadata><data><meanElements><EPOCH>2024-12-15T18:49:07.621536</EPOCH><MEAN_MOTION>14.43281280</MEAN_MOTION><ECCENTRICITY>.0001727</ECCENTRICITY><INCLINATION>86.4510</INCLINATION><RA_OF_ASC_NODE>159.6192</RA_OF_ASC_NODE><ARG_OF_PERICENTER>104.0655</ARG_OF_PERICENTER><MEAN_ANOMALY>256.0738</MEAN_ANOMALY></meanElements><tleParameters><EPHEMERIS_TYPE>0</EPHEMERIS_TYPE><CLASSIFICATION_TYPE>U</CLASSIFICATION_TYPE><NORAD_CAT_ID>42810</NORAD_CAT_ID><ELEMENT_SET_NO>999</ELEMENT_SET_NO><REV_AT_EPOCH>39601</REV_AT_EPOCH><BSTAR>.73871E-4</BSTAR><MEAN_MOTION_DOT>.269E-5</MEAN_MOTION_DOT><MEAN_MOTION_DDOT>0</MEAN_MOTION_DDOT></tleParameters></data></segment></body></omm>
<omm id="CCSDS_OMM_VERS" version="2.0">
<header><CREATION_DATE/><ORIGINATOR/></header><body><segment><metadata><OBJECT_NAME>IRIDIUM 128</OBJECT_NAME><OBJECT_ID>2017-039J</OBJECT_ID><CENTER_NAME>EARTH</CENTER_NAME><REF_FRAME>TEME</REF_FRAME><TIME_SYSTEM>UTC</TIME_SYSTEM><MEAN_ELEMENT_THEORY>SGP4</MEAN_ELEMENT_THEORY></metadata><data><meanElements><EPOCH>2024-12-15T14:51:45.975168</EPOCH><MEAN_MOTION>14.34216144</MEAN_MOTION><ECCENTRICITY>.0001772</ECCENTRICITY><INCLINATION>86.3970</INCLINATION><RA_OF_ASC_NODE>254.3552</RA_OF_ASC_NODE><ARG_OF_PERICENTER>82.7797</ARG_OF_PERICENTER><MEAN_ANOMALY>277.3601</MEAN_ANOMALY></meanElements><tleParameters><EPHEMERIS_TYPE>0</EPHEMERIS_TYPE><CLASSIFICATION_TYPE>U</CLASSIFICATION_TYPE><NORAD_CAT_ID>42811</NORAD_CAT_ID><ELEMENT_SET_NO>999</ELEMENT_SET_NO><REV_AT_EPOCH>39135</REV_AT_EPOCH><BSTAR>.172E-3</BSTAR><MEAN_MOTION_DOT>.501E-5</MEAN_MOTION_DOT><MEAN_MOTION_DDOT>0</MEAN_MOTION_DDOT></tleParameters></data></segment></body></omm>
<omm id="CCSDS_OMM_VERS" version="2.0">
<header><CREATION_DATE/><ORIGINATOR/></header><body><segment><metadata><OBJECT_NAME>IRIDIUM 121</OBJECT_NAME><OBJECT_ID>2017-039K</OBJECT_ID><CENTER_NAME>EARTH</CENTER_NAME><REF_FRAME>TEME</REF_FRAME><TIME_SYSTEM>UTC</TIME_SYSTEM><MEAN_ELEMENT_THEORY>SGP4</MEAN_ELEMENT_THEORY></metadata><data><meanElements><EPOCH>2024-12-15T15:32:30.894720</EPOCH><MEAN_MOTION>14.34218414</MEAN_MOTION><ECCENTRICITY>.0001907</ECCENTRICITY><INCLINATION>86.3987</INCLINATION><RA_OF_ASC_NODE>222.8574</RA_OF_ASC_NODE><ARG_OF_PERICENTER>87.4422</ARG_OF_PERICENTER><MEAN_ANOMALY>272.6992</MEAN_ANOMALY></meanElements><tleParameters><EPHEMERIS_TYPE>0</EPHEMERIS_TYPE><CLASSIFICATION_TYPE>U</CLASSIFICATION_TYPE><NORAD_CAT_ID>42812</NORAD_CAT_ID><ELEMENT_SET_NO>999</ELEMENT_SET_NO><REV_AT_EPOCH>39132</REV_AT_EPOCH><BSTAR>.72045E-4</BSTAR><MEAN_MOTION_DOT>.222E-5</MEAN_MOTION_DOT><MEAN_MOTION_DDOT>0</MEAN_MOTION_DDOT></tleParameters></data></segment></body></omm>
<omm id="CCSDS_OMM_VERS" version="2.0">
<header><CREATION_DATE/><ORIGINATOR/></header><body><segment><metadata><OBJECT_NAME>IRIDIUM 133</OBJECT_NAME><OBJECT_ID>2017-061A</OBJECT_ID><CENTER_NAME>EARTH</CENTER_NAME><REF_FRAME>TEME</REF_FRAME><TIME_SYSTEM>UTC</TIME_SYSTEM><MEAN_ELEMENT_THEORY>SGP4</MEAN_ELEMENT_THEORY></metadata><data><meanElements><EPOCH>2024-12-15T17:17:54.728448</EPOCH><MEAN_MOTION>14.34218314</MEAN_MOTION><ECCENTRICITY>.0002025</ECCENTRICITY><INCLINATION>86.3974</INCLINATION><RA_OF_ASC_NODE>254.4171</RA_OF_ASC_NODE><ARG_OF_PERICENTER>82.7425</ARG_OF_PERICENTER><MEAN_ANOMALY>277.4001</MEAN_ANOMALY></meanElements><tleParameters><EPHEMERIS_TYPE>0</EPHEMERIS_TYPE><CLASSIFICATION_TYPE>U</CLASSIFICATION_TYPE><NORAD_CAT_ID>42955</NORAD_CAT_ID><ELEMENT_SET_NO>999</ELEMENT_SET_NO><REV_AT_EPOCH>37616</REV_AT_EPOCH><BSTAR>.66626E-4</BSTAR><MEAN_MOTION_DOT>.206E-5</MEAN_MOTION_DOT><MEAN_MOTION_DDOT>0</MEAN_MOTION_DDOT></tleParameters></data></segment></body></omm>
<omm id="CCSDS_OMM_VERS" version="2.0">
<header><CREATION_DATE/><ORIGINATOR/></header><body><segment><metadata><OBJECT_NAME>IRIDIUM 100</OBJECT_NAME><OBJECT_ID>2017-061B</OBJECT_ID><CENTER_NAME>EARTH</CENTER_NAME><REF_FRAME>TEME</REF_FRAME><TIME_SYSTEM>UTC</TIME_SYSTEM><MEAN_ELEMENT_THEORY>SGP4</MEAN_ELEMENT_THEORY></metadata><data><meanElements><EPOCH>2024-12-15T13:47:50.696448</EPOCH><MEAN_MOTION>14.34219819</MEAN_MOTION><ECCENTRICITY>.0001905</ECCENTRICITY><INCLINATION>86.3970</INCLINATION><RA_OF_ASC_NODE>254.4094</RA_OF_ASC_NODE><ARG_OF_PERICENTER>79.2388</ARG_OF_PERICENTER><MEAN_ANOMALY>280.9022</MEAN_ANOMALY></meanElements><tleParameters><EPHEMERIS_TYPE>0</EPHEMERIS_TYPE><CLASSIFICATION_TYPE>U</CLASSIFICATION_TYPE><NORAD_CAT_ID>42956</NORAD_CAT_ID><ELEMENT_SET_NO>999</ELEMENT_SET_NO><REV_AT_EPOCH>37616</REV_AT_EPOCH><BSTAR>.19741E-3</BSTAR><MEAN_MOTION_DOT>.573E-5</MEAN_MOTION_DOT><MEAN_MOTION_DDOT>0</MEAN_MOTION_DDOT></tleParameters></data></segment></body></omm>
<omm id="CCSDS_OMM_VERS" version="2.0">
<header><CREATION_DATE/><ORIGINATOR/></header><body><segment><metadata><OBJECT_NAME>IRIDIUM 122</OBJECT_NAME><OBJECT_ID>2017-061C</OBJECT_ID><CENTER_NAME>EARTH</CENTER_NAME><REF_FRAME>TEME</REF_FRAME><TIME_SYSTEM>UTC</TIME_SYSTEM><MEAN_ELEMENT_THEORY>SGP4</MEAN_ELEMENT_THEORY></metadata><data><meanElements><EPOCH>2024-12-14T15:16:06.730464</EPOCH><MEAN_MOTION>14.34216702</MEAN_MOTION><ECCENTRICITY>.0001981</ECCENTRICITY><INCLINATION>86.3970</INCLINATION><RA_OF_ASC_NODE>254.8003</RA_OF_ASC_NODE><ARG_OF_PERICENTER>74.2990</ARG_OF_PERICENTER><MEAN_ANOMALY>285.8424</MEAN_ANOMALY></meanElements><tleParameters><EPHEMERIS_TYPE>0</EPHEMERIS_TYPE><CLASSIFICATION_TYPE>U</CLASSIFICATION_TYPE><NORAD_CAT_ID>42957</NORAD_CAT_ID><ELEMENT_SET_NO>999</ELEMENT_SET_NO><REV_AT_EPOCH>37601</REV_AT_EPOCH><BSTAR>.6377E-4</BSTAR><MEAN_MOTION_DOT>.198E-5</MEAN_MOTION_DOT><MEAN_MOTION_DDOT>0</MEAN_MOTION_DDOT></tleParameters></data></segment></body></omm>
<omm id="CCSDS_OMM_VERS" version="2.0">
<header><CREATION_DATE/><ORIGINATOR/></header><body><segment><metadata><OBJECT_NAME>IRIDIUM 129</OBJECT_NAME><OBJECT_ID>2017-061D</OBJECT_ID><CENTER_NAME>EARTH</CENTER_NAME><REF_FRAME>TEME</REF_FRAME><TIME_SYSTEM>UTC</TIME_SYSTEM><MEAN_ELEMENT_THEORY>SGP4</MEAN_ELEMENT_THEORY></metadata><data><meanElements><EPOCH>2024-12-15T01:55:26.839200</EPOCH><MEAN_MOTION>14.34218097</MEAN_MOTION><ECCENTRICITY>.000251</ECCENTRICITY><INCLINATION>86.3971</INCLINATION><RA_OF_ASC_NODE>254.6760</RA_OF_ASC_NODE><ARG_OF_PERICENTER>82.2926</ARG_OF_PERICENTER><MEAN_ANOMALY>277.8555</MEAN_ANOMALY></meanElements><tleParameters><EPHEMERIS_TYPE>0</EPHEMERIS_TYPE><CLASSIFICATION_TYPE>U</CLASSIFICATION_TYPE><NORAD_CAT_ID>42958</NORAD_CAT_ID><ELEMENT_SET_NO>999</ELEMENT_SET_NO><REV_AT_EPOCH>37609</REV_AT_EPOCH><BSTAR>.62223E-4</BSTAR><MEAN_MOTION_DOT>.194E-5</MEAN_MOTION_DOT><MEAN_MOTION_DDOT>0</MEAN_MOTION_DDOT></tleParameters></data></segment></body></omm>

</ndm>
