IRIDIUM 126             
1 42809U 17039G   24349.72156192  .00000353  00000+0  11898-3 0  9998
2 42809  86.3989 223.2203 0002080  77.6233 282.5195 14.34218507391190
IRIDIUM 124             
1 42810U 17039H   24350.78411599  .00000269  00000+0  73871-4 0  9999
2 42810  86.4510 159.6192 0001727 104.0655 256.0738 14.43281280396015
IRIDIUM 128             
1 42811U 17039J   24350.61928212  .00000501  00000+0  17200-3 0  9999
2 42811  86.3970 254.3552 0001772  82.7797 277.3601 14.34216144391351
IRIDIUM 121             
1 42812U 17039K   24350.64757980  .00000222  00000+0  72045-4 0  9994
2 42812  86.3987 222.8574 0001907  87.4422 272.6992 14.34218414391321
IRIDIUM 133             
1 42955U 17061A   24350.72077232  .00000206  00000+0  66626-4 0  9991
2 42955  86.3974 254.4171 0002025  82.7425 277.4001 14.34218314376160
IRIDIUM 100             
1 42956U 17061B   24350.57489232  .00000573  00000+0  19741-3 0  9994
2 42956  86.3970 254.4094 0001905  79.2388 280.9022 14.34219819376169
IRIDIUM 122             
1 42957U 17061C   24349.63618901  .00000198  00000+0  63770-4 0  9992
2 42957  86.3970 254.8003 0001981  74.2990 285.8424 14.34216702376014
IRIDIUM 129             
1 42958U 17061D   24350.08017175  .00000194  00000+0  62223-4 0  9998
2 42958  86.3971 254.6760 0002510  82.2926 277.8555 14.34218097376094
